{
  "type": "FeatureCollection",
  "features": [
    {
      "type": "Feature",
      "properties": {
        "norad_id": 35771,
        "name": "COSMOS 2251 DEB",
        "group": "cosmos-2251-debris",
        "lat": -54.18084495960304,
        "lon": -82.60724906703415,
        "alt_km": 781.5930943526746,
        "timestamp": "2025-12-18T07:01:54.986199+00:00",
        "meta_object_name": "COSMOS 2251 DEB",
        "meta_object_id": "1993-036ARR",
        "meta_epoch": "2025-12-15T14:45:16.238592",
        "meta_mean_motion": 14.13430046,
        "meta_eccentricity": 0.02280549,
        "meta_inclination": 74.1561,
        "meta_ra_of_asc_node": 305.27,
        "meta_arg_of_pericenter": 242.9998,
        "meta_mean_anomaly": 114.7698,
        "meta_ephemeris_type": 0,
        "meta_classification_type": "U",
        "meta_norad_cat_id": 35771,
        "meta_element_set_no": 999,
        "meta_rev_at_epoch": 82901,
        "meta_bstar": 0.0026764238,
        "meta_mean_motion_dot": 6.427e-05,
        "meta_mean_motion_ddot": 0,
        "tle_line1": "1 35771U 93036ARR 25349.61477128  .00006427  00000+0  26764-2 0  9998",
        "tle_line2": "2 35771  74.1561 305.2700 0228054 242.9998 114.7698 14.13430046829012"
      },
      "geometry": {
        "type": "Point",
        "coordinates": [
          -82.60724906703415,
          -54.18084495960304
        ]
      }
    },
    {
      "type": "Feature",
      "properties": {
        "norad_id": 35773,
        "name": "COSMOS 2251 DEB",
        "group": "cosmos-2251-debris",
        "lat": 60.89982362768421,
        "lon": 1.182900362460455,
        "alt_km": 665.586986122984,
        "timestamp": "2025-12-18T07:01:54.986209+00:00",
        "meta_object_name": "COSMOS 2251 DEB",
        "meta_object_id": "1993-036ART",
        "meta_epoch": "2025-12-17T15:57:15.956928",
        "meta_mean_motion": 14.62095725,
        "meta_eccentricity": 0.00453436,
        "meta_inclination": 74.008,
        "meta_ra_of_asc_node": 331.3734,
        "meta_arg_of_pericenter": 129.9949,
        "meta_mean_anomaly": 230.5212,
        "meta_ephemeris_type": 0,
        "meta_classification_type": "U",
        "meta_norad_cat_id": 35773,
        "meta_element_set_no": 999,
        "meta_rev_at_epoch": 86911,
        "meta_bstar": 0.00043827191,
        "meta_mean_motion_dot": 2.204e-05,
        "meta_mean_motion_ddot": 0,
        "tle_line1": "1 35773U 93036ART 25351.66476802  .00002204  00000+0  43827-3 0  9995",
        "tle_line2": "2 35773  74.0080 331.3734 0045343 129.9949 230.5212 14.62095725869113"
      },
      "geometry": {
        "type": "Point",
        "coordinates": [
          1.182900362460455,
          60.89982362768421
        ]
      }
    },
    {
      "type": "Feature",
      "properties": {
        "norad_id": 35777,
        "name": "COSMOS 2251 DEB",
        "group": "cosmos-2251-debris",
        "lat": -18.891024213623343,
        "lon": -51.85357203199963,
        "alt_km": 1329.0240352487908,
        "timestamp": "2025-12-18T07:01:54.986219+00:00",
        "meta_object_name": "COSMOS 2251 DEB",
        "meta_object_id": "1993-036ARX",
        "meta_epoch": "2025-12-17T15:56:28.783392",
        "meta_mean_motion": 13.41305398,
        "meta_eccentricity": 0.04520418,
        "meta_inclination": 73.7703,
        "meta_ra_of_asc_node": 314.8708,
        "meta_arg_of_pericenter": 208.9867,
        "meta_mean_anomaly": 332.4334,
        "meta_ephemeris_type": 0,
        "meta_classification_type": "U",
        "meta_norad_cat_id": 35777,
        "meta_element_set_no": 999,
        "meta_rev_at_epoch": 79750,
        "meta_bstar": 0.00020338614,
        "meta_mean_motion_dot": 1.83e-06,
        "meta_mean_motion_ddot": 0,
        "tle_line1": "1 35777U 93036ARX 25351.66422203  .00000183  00000+0  20339-3 0  9992",
        "tle_line2": "2 35777  73.7703 314.8708 0452041 208.9867 332.4334 13.41305398797502"
      },
      "geometry": {
        "type": "Point",
        "coordinates": [
          -51.85357203199963,
          -18.891024213623343
        ]
      }
    },
    {
      "type": "Feature",
      "properties": {
        "norad_id": 35784,
        "name": "COSMOS 2251 DEB",
        "group": "cosmos-2251-debris",
        "lat": -20.501087218755377,
        "lon": -94.57385553723819,
        "alt_km": 700.858912405949,
        "timestamp": "2025-12-18T07:01:54.986230+00:00",
        "meta_object_name": "COSMOS 2251 DEB",
        "meta_object_id": "1993-036ASE",
        "meta_epoch": "2025-12-13T00:15:55.997856",
        "meta_mean_motion": 14.5004387,
        "meta_eccentricity": 0.00418068,
        "meta_inclination": 74.0388,
        "meta_ra_of_asc_node": 89.1969,
        "meta_arg_of_pericenter": 220.0486,
        "meta_mean_anomaly": 139.759,
        "meta_ephemeris_type": 0,
        "meta_classification_type": "U",
        "meta_norad_cat_id": 35784,
        "meta_element_set_no": 999,
        "meta_rev_at_epoch": 65710,
        "meta_bstar": 0.00055772353,
        "meta_mean_motion_dot": 2.158e-05,
        "meta_mean_motion_ddot": 0,
        "tle_line1": "1 35784U 93036ASE 25347.01106479  .00002158  00000+0  55772-3 0  9991",
        "tle_line2": "2 35784  74.0388  89.1969 0041806 220.0486 139.7590 14.50043870657107"
      },
      "geometry": {
        "type": "Point",
        "coordinates": [
          -94.57385553723819,
          -20.501087218755377
        ]
      }
    },
    {
      "type": "Feature",
      "properties": {
        "norad_id": 35786,
        "name": "COSMOS 2251 DEB",
        "group": "cosmos-2251-debris",
        "lat": 72.60563338569824,
        "lon": 99.26396262344682,
        "alt_km": 660.7933151670113,
        "timestamp": "2025-12-18T07:01:54.986240+00:00",
        "meta_object_name": "COSMOS 2251 DEB",
        "meta_object_id": "1993-036ASG",
        "meta_epoch": "2025-12-17T11:00:13.182624",
        "meta_mean_motion": 14.66275248,
        "meta_eccentricity": 0.00336818,
        "meta_inclination": 74.0147,
        "meta_ra_of_asc_node": 34.662,
        "meta_arg_of_pericenter": 163.3391,
        "meta_mean_anomaly": 196.8894,
        "meta_ephemeris_type": 0,
        "meta_classification_type": "U",
        "meta_norad_cat_id": 35786,
        "meta_element_set_no": 999,
        "meta_rev_at_epoch": 73477,
        "meta_bstar": 0.00069598569,
        "meta_mean_motion_dot": 3.84e-05,
        "meta_mean_motion_ddot": 0,
        "tle_line1": "1 35786U 93036ASG 25351.45848591  .00003840  00000+0  69599-3 0  9995",
        "tle_line2": "2 35786  74.0147  34.6620 0033681 163.3391 196.8894 14.66275248734770"
      },
      "geometry": {
        "type": "Point",
        "coordinates": [
          99.26396262344682,
          72.60563338569824
        ]
      }
    },
    {
      "type": "Feature",
      "properties": {
        "norad_id": 35789,
        "name": "COSMOS 2251 DEB",
        "group": "cosmos-2251-debris",
        "lat": -65.64352614042139,
        "lon": 133.39123988468876,
        "alt_km": 795.9924773694001,
        "timestamp": "2025-12-18T07:01:54.986250+00:00",
        "meta_object_name": "COSMOS 2251 DEB",
        "meta_object_id": "1993-036ASK",
        "meta_epoch": "2025-12-17T01:26:23.250912",
        "meta_mean_motion": 14.35989528,
        "meta_eccentricity": 0.00475408,
        "meta_inclination": 74.0381,
        "meta_ra_of_asc_node": 276.4392,
        "meta_arg_of_pericenter": 14.7858,
        "meta_mean_anomaly": 345.4672,
        "meta_ephemeris_type": 0,
        "meta_classification_type": "U",
        "meta_norad_cat_id": 35789,
        "meta_element_set_no": 999,
        "meta_rev_at_epoch": 61289,
        "meta_bstar": 0.00011853028,
        "meta_mean_motion_dot": 3.23e-06,
        "meta_mean_motion_ddot": 0,
        "tle_line1": "1 35789U 93036ASK 25351.05999133  .00000323  00000+0  11853-3 0  9996",
        "tle_line2": "2 35789  74.0381 276.4392 0047540  14.7858 345.4672 14.35989528612894"
      },
      "geometry": {
        "type": "Point",
        "coordinates": [
          133.39123988468876,
          -65.64352614042139
        ]
      }
    },
    {
      "type": "Feature",
      "properties": {
        "norad_id": 35793,
        "name": "COSMOS 2251 DEB",
        "group": "cosmos-2251-debris",
        "lat": 70.43576969832438,
        "lon": 102.90171882630202,
        "alt_km": 624.4976644471708,
        "timestamp": "2025-12-18T07:01:54.986260+00:00",
        "meta_object_name": "COSMOS 2251 DEB",
        "meta_object_id": "1993-036ASP",
        "meta_epoch": "2025-12-16T22:59:16.262304",
        "meta_mean_motion": 14.7878305,
        "meta_eccentricity": 0.00021826,
        "meta_inclination": 74.0414,
        "meta_ra_of_asc_node": 51.8941,
        "meta_arg_of_pericenter": 103.608,
        "meta_mean_anomaly": 69.9436,
        "meta_ephemeris_type": 0,
        "meta_classification_type": "U",
        "meta_norad_cat_id": 35793,
        "meta_element_set_no": 999,
        "meta_rev_at_epoch": 65859,
        "meta_bstar": 0.0012867323,
        "meta_mean_motion_dot": 9.439e-05,
        "meta_mean_motion_ddot": 0,
        "tle_line1": "1 35793U 93036ASP 25350.95782711  .00009439  00000+0  12867-2 0  9993",
        "tle_line2": "2 35793  74.0414  51.8941 0002182 103.6080  69.9436 14.78783050658591"
      },
      "geometry": {
        "type": "Point",
        "coordinates": [
          102.90171882630202,
          70.43576969832438
        ]
      }
    }
  ]
}